[Satellite]
VERSION=1.1
NAME=THOR III
NICKNAME=THOR III
TLE1=1 25358U 98035A   15052.23447226 -.00000063  00000-0  00000+0 0  9990
TLE2=2 25358   3.9166  64.7441 0002418 266.9354 259.2359  1.00271676 61266
